1 39444U 13066AE  21256.44953584  .00000468  00000-0  63118-4 0  9999
2 39444  97.5914 238.6347 0056397 221.4517 138.2412 14.82513089420475